[{"OBJECT_NAME":"IRIDIUM 33 DEB","OBJECT_ID":"1997-051GC","EPOCH":"2026-03-06T17:41:22.873920","MEAN_MOTION":14.43375929,"ECCENTRICITY":0.00295712,"INCLINATION":86.3481,"RA_OF_ASC_NODE":336.2303,"ARG_OF_PERICENTER":209.5925,"MEAN_ANOMALY":179.4368,"EPHEMERIS_TYPE":0,"CLASSIFICATION_TYPE":"U","NORAD_CAT_ID":34487,"ELEMENT_SET_NO":999,"REV_AT_EPOCH":89460,"BSTAR":0.00025908186,"MEAN_MOTION_DOT":8.98e-6,"MEAN_MOTION_DDOT":0},{"OBJECT_NAME":"IRIDIUM 33 DEB","OBJECT_ID":"1997-051GD","EPOCH":"2026-02-22T01:06:52.109280","MEAN_MOTION":15.78089963,"ECCENTRICITY":0.00047702,"INCLINATION":86.3081,"RA_OF_ASC_NODE":269.542,"ARG_OF_PERICENTER":70.8002,"MEAN_ANOMALY":289.3788,"EPHEMERIS_TYPE":0,"CLASSIFICATION_TYPE":"U","NORAD_CAT_ID":34488,"ELEMENT_SET_NO":999,"REV_AT_EPOCH":90341,"BSTAR":0.0064727089,"MEAN_MOTION_DOT":0.01238203,"MEAN_MOTION_DDOT":0},{"OBJECT_NAME":"IRIDIUM 33 DEB","OBJECT_ID":"1997-051GH","EPOCH":"2026-03-07T10:28:12.156384","MEAN_MOTION":14.27710694,"ECCENTRICITY":0.01859173,"INCLINATION":86.4697,"RA_OF_ASC_NODE":300.3474,"ARG_OF_PERICENTER":326.9027,"MEAN_ANOMALY":152.1695,"EPHEMERIS_TYPE":0,"CLASSIFICATION_TYPE":"U","NORAD_CAT_ID":34492,"ELEMENT_SET_NO":999,"REV_AT_EPOCH":86266,"BSTAR":0.0051213842,"MEAN_MOTION_DOT":0.00015224,"MEAN_MOTION_DDOT":0},{"OBJECT_NAME":"IRIDIUM 33 DEB","OBJECT_ID":"1997-051GN","EPOCH":"2026-03-07T08:08:47.357664","MEAN_MOTION":14.27774703,"ECCENTRICITY":0.008198,"INCLINATION":86.2815,"RA_OF_ASC_NODE":16.2424,"ARG_OF_PERICENTER":66.0954,"MEAN_ANOMALY":88.8502,"EPHEMERIS_TYPE":0,"CLASSIFICATION_TYPE":"U","NORAD_CAT_ID":34497,"ELEMENT_SET_NO":999,"REV_AT_EPOCH":88090,"BSTAR":0.0011835,"MEAN_MOTION_DOT":3.048e-5,"MEAN_MOTION_DDOT":0},{"OBJECT_NAME":"IRIDIUM 33 DEB","OBJECT_ID":"1997-051GZ","EPOCH":"2026-03-07T10:58:10.719264","MEAN_MOTION":14.39113801,"ECCENTRICITY":0.00617471,"INCLINATION":86.3663,"RA_OF_ASC_NODE":66.682,"ARG_OF_PERICENTER":255.1194,"MEAN_ANOMALY":104.3161,"EPHEMERIS_TYPE":0,"CLASSIFICATION_TYPE":"U","NORAD_CAT_ID":34508,"ELEMENT_SET_NO":999,"REV_AT_EPOCH":88527,"BSTAR":0.0015342566,"MEAN_MOTION_DOT":4.87e-5,"MEAN_MOTION_DDOT":0},{"OBJECT_NAME":"IRIDIUM 33 DEB","OBJECT_ID":"1997-051HN","EPOCH":"2026-03-07T04:47:12.347808","MEAN_MOTION":14.64623747,"ECCENTRICITY":0.0004601,"INCLINATION":86.3833,"RA_OF_ASC_NODE":353.3355,"ARG_OF_PERICENTER":15.5012,"MEAN_ANOMALY":344.6341,"EPHEMERIS_TYPE":0,"CLASSIFICATION_TYPE":"U","NORAD_CAT_ID":34521,"ELEMENT_SET_NO":999,"REV_AT_EPOCH":89708,"BSTAR":0.0019605,"MEAN_MOTION_DOT":0.00010443,"MEAN_MOTION_DDOT":0},{"OBJECT_NAME":"IRIDIUM 33 DEB","OBJECT_ID":"1997-051HS","EPOCH":"2026-03-07T08:55:43.735872","MEAN_MOTION":14.431673,"ECCENTRICITY":0.00049114,"INCLINATION":86.3772,"RA_OF_ASC_NODE":10.7088,"ARG_OF_PERICENTER":144.4549,"MEAN_ANOMALY":344.6276,"EPHEMERIS_TYPE":0,"CLASSIFICATION_TYPE":"U","NORAD_CAT_ID":34525,"ELEMENT_SET_NO":999,"REV_AT_EPOCH":89308,"BSTAR":0.00056888644,"MEAN_MOTION_DOT":1.93e-5,"MEAN_MOTION_DDOT":0},{"OBJECT_NAME":"IRIDIUM 33 DEB","OBJECT_ID":"1997-051HW","EPOCH":"2026-03-07T07:08:47.093856","MEAN_MOTION":14.4073495,"ECCENTRICITY":0.0003043,"INCLINATION":86.3693,"RA_OF_ASC_NODE":359.3675,"ARG_OF_PERICENTER":301.1465,"MEAN_ANOMALY":58.9435,"EPHEMERIS_TYPE":0,"CLASSIFICATION_TYPE":"U","NORAD_CAT_ID":34529,"ELEMENT_SET_NO":999,"REV_AT_EPOCH":89359,"BSTAR":0.00029182,"MEAN_MOTION_DOT":9.52e-6,"MEAN_MOTION_DDOT":0},{"OBJECT_NAME":"IRIDIUM 33 DEB","OBJECT_ID":"1997-051JF","EPOCH":"2026-03-07T11:35:19.410720","MEAN_MOTION":14.43267279,"ECCENTRICITY":0.00364071,"INCLINATION":86.2791,"RA_OF_ASC_NODE":328.4401,"ARG_OF_PERICENTER":46.0939,"MEAN_ANOMALY":9.7449,"EPHEMERIS_TYPE":0,"CLASSIFICATION_TYPE":"U","NORAD_CAT_ID":34538,"ELEMENT_SET_NO":999,"REV_AT_EPOCH":88978,"BSTAR":0.0011402912,"MEAN_MOTION_DOT":3.888e-5,"MEAN_MOTION_DDOT":0},{"OBJECT_NAME":"IRIDIUM 33 DEB","OBJECT_ID":"1997-051JH","EPOCH":"2026-03-07T14:09:17.494848","MEAN_MOTION":14.77357203,"ECCENTRICITY":0.00145444,"INCLINATION":86.305,"RA_OF_ASC_NODE":268.7435,"ARG_OF_PERICENTER":230.9903,"MEAN_ANOMALY":191.5729,"EPHEMERIS_TYPE":0,"CLASSIFICATION_TYPE":"U","NORAD_CAT_ID":34540,"ELEMENT_SET_NO":999,"REV_AT_EPOCH":90273,"BSTAR":0.0018839869,"MEAN_MOTION_DOT":0.00013446,"MEAN_MOTION_DDOT":0},{"OBJECT_NAME":"IRIDIUM 33 DEB","OBJECT_ID":"1997-051JZ","EPOCH":"2026-03-07T11:36:01.224864","MEAN_MOTION":14.1338696,"ECCENTRICITY":0.01756299,"INCLINATION":86.3889,"RA_OF_ASC_NODE":247.677,"ARG_OF_PERICENTER":30.2493,"MEAN_ANOMALY":330.8688,"EPHEMERIS_TYPE":0,"CLASSIFICATION_TYPE":"U","NORAD_CAT_ID":34648,"ELEMENT_SET_NO":999,"REV_AT_EPOCH":86157,"BSTAR":0.004121156,"MEAN_MOTION_DOT":8.987e-5,"MEAN_MOTION_DDOT":0},{"OBJECT_NAME":"IRIDIUM 33 DEB","OBJECT_ID":"1997-051KC","EPOCH":"2026-03-07T13:12:15.391296","MEAN_MOTION":14.27252831,"ECCENTRICITY":0.01319242,"INCLINATION":86.2774,"RA_OF_ASC_NODE":104.4344,"ARG_OF_PERICENTER":290.6476,"MEAN_ANOMALY":68.061,"EPHEMERIS_TYPE":0,"CLASSIFICATION_TYPE":"U","NORAD_CAT_ID":34651,"ELEMENT_SET_NO":999,"REV_AT_EPOCH":87105,"BSTAR":0.0035371531,"MEAN_MOTION_DOT":9.505e-5,"MEAN_MOTION_DDOT":0},{"OBJECT_NAME":"IRIDIUM 33 DEB","OBJECT_ID":"1997-051KD","EPOCH":"2026-03-07T09:34:30.252864","MEAN_MOTION":14.62950226,"ECCENTRICITY":0.0028577,"INCLINATION":86.3294,"RA_OF_ASC_NODE":302.2959,"ARG_OF_PERICENTER":10.9216,"MEAN_ANOMALY":114.9148,"EPHEMERIS_TYPE":0,"CLASSIFICATION_TYPE":"U","NORAD_CAT_ID":34652,"ELEMENT_SET_NO":999,"REV_AT_EPOCH":89721,"BSTAR":0.00098204355,"MEAN_MOTION_DOT":5.078e-5,"MEAN_MOTION_DDOT":0},{"OBJECT_NAME":"IRIDIUM 33 DEB","OBJECT_ID":"1997-051KM","EPOCH":"2026-03-07T07:14:11.409216","MEAN_MOTION":14.55452871,"ECCENTRICITY":0.0012575,"INCLINATION":86.3823,"RA_OF_ASC_NODE":0.2311,"ARG_OF_PERICENTER":88.8218,"MEAN_ANOMALY":65.488,"EPHEMERIS_TYPE":0,"CLASSIFICATION_TYPE":"U","NORAD_CAT_ID":34690,"ELEMENT_SET_NO":999,"REV_AT_EPOCH":89324,"BSTAR":0.00060573,"MEAN_MOTION_DOT":2.656e-5,"MEAN_MOTION_DDOT":0},{"OBJECT_NAME":"IRIDIUM 33 DEB","OBJECT_ID":"1997-051KQ","EPOCH":"2026-02-24T23:46:27.128064","MEAN_MOTION":15.78525,"ECCENTRICITY":0.00039393,"INCLINATION":86.2833,"RA_OF_ASC_NODE":265.9163,"ARG_OF_PERICENTER":44.5223,"MEAN_ANOMALY":315.6368,"EPHEMERIS_TYPE":0,"CLASSIFICATION_TYPE":"U","NORAD_CAT_ID":34693,"ELEMENT_SET_NO":999,"REV_AT_EPOCH":90061,"BSTAR":0.0068576941,"MEAN_MOTION_DOT":0.01322234,"MEAN_MOTION_DDOT":0},{"OBJECT_NAME":"IRIDIUM 33 DEB","OBJECT_ID":"1997-051KT","EPOCH":"2026-03-06T18:36:56.287008","MEAN_MOTION":14.72109989,"ECCENTRICITY":0.00570908,"INCLINATION":86.1832,"RA_OF_ASC_NODE":348.2217,"ARG_OF_PERICENTER":242.2798,"MEAN_ANOMALY":145.7593,"EPHEMERIS_TYPE":0,"CLASSIFICATION_TYPE":"U","NORAD_CAT_ID":34696,"ELEMENT_SET_NO":999,"REV_AT_EPOCH":87906,"BSTAR":0.0066841412,"MEAN_MOTION_DOT":0.00043381,"MEAN_MOTION_DDOT":0}]
