IRIDIUM 33 DEB          
1 34487U 97051GC  26065.73707030  .00000898  00000+0  25908-3 0  9995
2 34487  86.3481 336.2303 0029571 209.5925 179.4368 14.43375929894606
IRIDIUM 33 DEB          
1 34488U 97051GD  26053.04643645  .01238203  00000+0  64727-2 0  9993
2 34488  86.3081 269.5420 0004770  70.8002 289.3788 15.78089963903416
IRIDIUM 33 DEB          
1 34492U 97051GH  26066.43625181  .00015224  00000+0  51214-2 0  9992
2 34492  86.4697 300.3474 0185917 326.9027 152.1695 14.27710694862663
IRIDIUM 33 DEB          
1 34497U 97051GN  26066.33943701  .00003048  00000+0  11835-2 0  9993
2 34497  86.2815  16.2424 0081980  66.0954  88.8502 14.27774703880902
IRIDIUM 33 DEB          
1 34508U 97051GZ  26066.45706851  .00004870  00000+0  15343-2 0  9994
2 34508  86.3663  66.6820 0061747 255.1194 104.3161 14.39113801885271
IRIDIUM 33 DEB          
1 34521U 97051HN  26066.19944847  .00010443  00000+0  19605-2 0  9997
2 34521  86.3833 353.3355 0004601  15.5012 344.6341 14.64623747897081
IRIDIUM 33 DEB          
1 34525U 97051HS  26066.37203398  .00001930  00000+0  56889-3 0  9997
2 34525  86.3772  10.7088 0004911 144.4549 344.6276 14.43167300893083
IRIDIUM 33 DEB          
1 34529U 97051HW  26066.29776729  .00000952  00000+0  29182-3 0  9994
2 34529  86.3693 359.3675 0003043 301.1465  58.9435 14.40734950893593
IRIDIUM 33 DEB          
1 34538U 97051JF  26066.48286355  .00003888  00000+0  11403-2 0  9993
2 34538  86.2791 328.4401 0036407  46.0939   9.7449 14.43267279889789
IRIDIUM 33 DEB          
1 34540U 97051JH  26066.58978582  .00013446  00000+0  18840-2 0  9990
2 34540  86.3050 268.7435 0014544 230.9903 191.5729 14.77357203902733
IRIDIUM 33 DEB          
1 34648U 97051JZ  26066.48334751  .00008987  00000+0  41212-2 0  9995
2 34648  86.3889 247.6770 0175629  30.2493 330.8688 14.13386960861577
IRIDIUM 33 DEB          
1 34651U 97051KC  26066.55017814  .00009505  00000+0  35372-2 0  9992
2 34651  86.2774 104.4344 0131924 290.6476  68.0610 14.27252831871056
IRIDIUM 33 DEB          
1 34652U 97051KD  26066.39896126  .00005078  00000+0  98204-3 0  9991
2 34652  86.3294 302.2959 0028577  10.9216 114.9148 14.62950226897214
IRIDIUM 33 DEB          
1 34690U 97051KM  26066.30152094  .00002656  00000+0  60573-3 0  9990
2 34690  86.3823   0.2311 0012575  88.8218  65.4880 14.55452871893245
IRIDIUM 33 DEB          
1 34693U 97051KQ  26055.99059176  .01322234  00000+0  68577-2 0  9992
2 34693  86.2833 265.9163 0003939  44.5223 315.6368 15.78525000900614
IRIDIUM 33 DEB          
1 34696U 97051KT  26065.77565147  .00043381  00000+0  66841-2 0  9996
2 34696  86.1832 348.2217 0057090 242.2798 145.7593 14.72109989879064
